{"fetched_at":"2026-07-23T17:55:57.382Z","source":"https://celestrak.org/NORAD/elements/gp.php?NAME=TIGER&FORMAT=JSON","constellation":"oq-technology","records":[{"OBJECT_NAME":"TIGER-8","OBJECT_ID":"2024-043Y","EPOCH":"2026-07-23T07:03:22.706784","CLASSIFICATION_TYPE":"U","MEAN_MOTION":15.45276985,"ECCENTRICITY":0.0008766,"INCLINATION":97.5578,"RA_OF_ASC_NODE":354.369,"ARG_OF_PERICENTER":78.689,"MEAN_ANOMALY":281.5342,"EPHEMERIS_TYPE":0,"NORAD_CAT_ID":59120,"ELEMENT_SET_NO":999,"REV_AT_EPOCH":13336,"BSTAR":0.00019505428,"MEAN_MOTION_DOT":0.00009201,"MEAN_MOTION_DDOT":0},{"OBJECT_NAME":"TIGER-7","OBJECT_ID":"2024-043AV","EPOCH":"2026-07-22T08:06:11.051424","CLASSIFICATION_TYPE":"U","MEAN_MOTION":15.49462143,"ECCENTRICITY":0.00065366,"INCLINATION":97.5512,"RA_OF_ASC_NODE":355.9219,"ARG_OF_PERICENTER":56.594,"MEAN_ANOMALY":303.5935,"EPHEMERIS_TYPE":0,"NORAD_CAT_ID":59141,"ELEMENT_SET_NO":999,"REV_AT_EPOCH":13341,"BSTAR":0.00022076723,"MEAN_MOTION_DOT":0.00012054,"MEAN_MOTION_DDOT":0}]}
