TIGER-8                 
1 59120U 24043Y   26204.29401281  .00009201  00000+0  19505-3 0  9995
2 59120  97.5578 354.3690 0008766  78.6890 281.5342 15.45276985133368
TIGER-7                 
1 59141U 24043AV  26203.33762791  .00012054  00000+0  22077-3 0  9996
2 59141  97.5512 355.9219 0006536  56.5940 303.5935 15.49462143133413
